{
"type": "FeatureCollection",
"name": "chichikogusamodoki",
"crs": { "type": "name", "properties": { "name": "urn:ogc:def:crs:OGC:1.3:CRS84" } },
"features": [
{ "type": "Feature", "properties": { "fid": 1, "species": "チチコグサモドキ", "datetime": "2026年5月25日 13:16", "note": "", "photoId": "001" }, "geometry": { "type": "Point", "coordinates": [ 139.7426113, 35.6904905, 0.0 ] } },
{ "type": "Feature", "properties": { "fid": 2, "species": "チチコグサモドキ", "datetime": "2026年5月18日 13:22", "note": "", "photoId": "002" }, "geometry": { "type": "Point", "coordinates": [ 139.7474719, 35.6902421, 0.0 ] } },
{ "type": "Feature", "properties": { "fid": 3, "species": "チチコグサモドキ", "datetime": "2026年5月25日 13:16", "note": "", "photoId": "003" }, "geometry": { "type": "Point", "coordinates": [ 139.7430857, 35.6900992, 0.0 ] } }
]
}
