{
"type": "FeatureCollection",
"name": "dokudami",
"crs": { "type": "name", "properties": { "name": "urn:ogc:def:crs:OGC:1.3:CRS84" } },
"features": [
{ "type": "Feature", "properties": { "fid": 1, "species": "ドクダミ", "datetime": "2026年5月18日 13:39", "note": "", "photoId": "001" }, "geometry": { "type": "Point", "coordinates": [ 139.7457492, 35.6914476, 0.0 ] } },
{ "type": "Feature", "properties": { "fid": 2, "species": "ドクダミ", "datetime": "2026年5月25日 13:10", "note": "", "photoId": "002" }, "geometry": { "type": "Point", "coordinates": [ 139.7431407, 35.6902636, 0.0 ] } },
{ "type": "Feature", "properties": { "fid": 3, "species": "ドクダミ", "datetime": "2026年5月25日 13:36", "note": "", "photoId": "003" }, "geometry": { "type": "Point", "coordinates": [ 139.743745600000011, 35.6909228, 0.0 ] } },
{ "type": "Feature", "properties": { "fid": 4, "species": "ドクダミ", "datetime": "2026年5月25日 13:15", "note": "", "photoId": "004" }, "geometry": { "type": "Point", "coordinates": [ 139.7424096, 35.6905907, 0.0 ] } },
{ "type": "Feature", "properties": { "fid": 5, "species": "ドクダミ", "datetime": "2026年5月11日 13:36", "note": "", "photoId": "005" }, "geometry": { "type": "Point", "coordinates": [ 139.739890699999989, 35.6900177, 0.0 ] } }
]
}
