{
"type": "FeatureCollection",
"name": "himejyoon",
"crs": { "type": "name", "properties": { "name": "urn:ogc:def:crs:OGC:1.3:CRS84" } },
"features": [
{ "type": "Feature", "properties": { "fid": 1, "species": "ヒメジョオン", "datetime": "2026年5月11日 13:35", "note": "", "photoId": "001" }, "geometry": { "type": "Point", "coordinates": [ 139.7400738, 35.6897897, 0.0 ] } },
{ "type": "Feature", "properties": { "fid": 2, "species": "ヒメジョオン", "datetime": "2026年5月11日 13:24", "note": "", "photoId": "002" }, "geometry": { "type": "Point", "coordinates": [ 139.7429108, 35.6901405, 0.0 ] } },
{ "type": "Feature", "properties": { "fid": 3, "species": "ヒメジョオン", "datetime": "2026年5月11日 13:36", "note": "", "photoId": "003" }, "geometry": { "type": "Point", "coordinates": [ 139.739849099999986, 35.6901157, 0.0 ] } },
{ "type": "Feature", "properties": { "fid": 4, "species": "ヒメジョオン", "datetime": "2026年5月18日 13:30", "note": "", "photoId": "004" }, "geometry": { "type": "Point", "coordinates": [ 139.7444218, 35.6899939, 0.0 ] } },
{ "type": "Feature", "properties": { "fid": 5, "species": "ヒメジョオン", "datetime": "2026年5月11日 13:40", "note": "", "photoId": "005" }, "geometry": { "type": "Point", "coordinates": [ 139.743935, 35.6905062, 0.0 ] } },
{ "type": "Feature", "properties": { "fid": 6, "species": "ヒメジョオン", "datetime": "2026年5月18日 13:32", "note": "", "photoId": "006" }, "geometry": { "type": "Point", "coordinates": [ 139.7445985, 35.6899718, 0.0 ] } },
{ "type": "Feature", "properties": { "fid": 7, "species": "ヒメジョオン", "datetime": "2026年5月11日 13:40", "note": "", "photoId": "007" }, "geometry": { "type": "Point", "coordinates": [ 139.744569899999988, 35.690977, 0.0 ] } },
{ "type": "Feature", "properties": { "fid": 8, "species": "ヒメジョオン", "datetime": "2026年5月11日 13:49", "note": "", "photoId": "008" }, "geometry": { "type": "Point", "coordinates": [ 139.74422, 35.6901357, 0.0 ] } },
{ "type": "Feature", "properties": { "fid": 9, "species": "ヒメジョオン", "datetime": "2026年5月25日 13:20", "note": "", "photoId": "009" }, "geometry": { "type": "Point", "coordinates": [ 139.7430095, 35.6899588, 0.0 ] } },
{ "type": "Feature", "properties": { "fid": 10, "species": "ヒメジョオン", "datetime": "2026年5月25日 13:35", "note": "", "photoId": "010" }, "geometry": { "type": "Point", "coordinates": [ 139.7450763, 35.6891061, 0.0 ] } },
{ "type": "Feature", "properties": { "fid": 11, "species": "ヒメジョオン", "datetime": "2026年5月18日 13:25", "note": "", "photoId": "011" }, "geometry": { "type": "Point", "coordinates": [ 139.7475988, 35.6900456, 0.0 ] } },
{ "type": "Feature", "properties": { "fid": 12, "species": "ヒメジョオン", "datetime": "2026年5年25日 13:25", "note": "", "photoId": "012" }, "geometry": { "type": "Point", "coordinates": [ 139.7448953, 35.6890252, 0.0 ] } },
{ "type": "Feature", "properties": { "fid": 13, "species": "ヒメジョオン", "datetime": "2026年5年25日 13:37", "note": "", "photoId": "013" }, "geometry": { "type": "Point", "coordinates": [ 139.744298, 35.6855696, 0.0 ] } }
]
}
