{
"type": "FeatureCollection",
"name": "kyuurigusa",
"crs": { "type": "name", "properties": { "name": "urn:ogc:def:crs:OGC:1.3:CRS84" } },
"features": [
{ "type": "Feature", "properties": { "fid": 1, "species": "キュウリグサ", "datetime": "2026年5月11日 13:27", "note": "", "photoId": "001" }, "geometry": { "type": "Point", "coordinates": [ 139.7428437, 35.6898965, 0.0 ] } },
{ "type": "Feature", "properties": { "fid": 2, "species": "キュウリグサ", "datetime": "2026年5月11日 13:39", "note": "", "photoId": "002" }, "geometry": { "type": "Point", "coordinates": [ 139.745983, 35.6908484, 0.0 ] } },
{ "type": "Feature", "properties": { "fid": 3, "species": "キュウリグサ", "datetime": "2026年5月11日 13:37", "note": "", "photoId": "003" }, "geometry": { "type": "Point", "coordinates": [ 139.7397526, 35.6903379, 0.0 ] } }
]
}
