{
"type": "FeatureCollection",
"name": "murasakikatabami",
"crs": { "type": "name", "properties": { "name": "urn:ogc:def:crs:OGC:1.3:CRS84" } },
"features": [
{ "type": "Feature", "properties": { "fid": 1, "species": "ムラサキカタバミ", "datetime": "2026年5月11日 13:22", "note": "カタバミ科カタバミ属、〈時期〉5-7月、〈特徴〉在来種のカタバミより優占する。日本の環境下では花粉がつくられず球根で増える。雄しべの先端が白く、気温が低いと花が閉じる。", "photoId": "001" }, "geometry": { "type": "Point", "coordinates": [ 139.743265799999989, 35.6909624, 0.0 ] } },
{ "type": "Feature", "properties": { "fid": 2, "species": "ムラサキカタバミ", "datetime": "2026年5月25日 13:16", "note": "", "photoId": "002" }, "geometry": { "type": "Point", "coordinates": [ 139.7415985, 35.6901395, 0.0 ] } },
{ "type": "Feature", "properties": { "fid": 3, "species": "ムラサキカタバミ", "datetime": "2026年5月25日 13:15", "note": "", "photoId": "003" }, "geometry": { "type": "Point", "coordinates": [ 139.7404923, 35.6905001, 0.0 ] } },
{ "type": "Feature", "properties": { "fid": 4, "species": "ムラサキカタバミ", "datetime": "2026年5月11日 13:46", "note": "", "photoId": "004" }, "geometry": { "type": "Point", "coordinates": [ 139.7419614, 35.6915718, 0.0 ] } },
{ "type": "Feature", "properties": { "fid": 5, "species": "ムラサキカタバミ", "datetime": "2026年5月11日 13:47", "note": "", "photoId": "005" }, "geometry": { "type": "Point", "coordinates": [ 139.7423181, 35.6916981, 0.0 ] } },
{ "type": "Feature", "properties": { "fid": 6, "species": "ムラサキカタバミ", "datetime": "2026年5月18日 13:58", "note": "", "photoId": "006" }, "geometry": { "type": "Point", "coordinates": [ 139.741103900000013, 35.6909896, 0.0 ] } },
{ "type": "Feature", "properties": { "fid": 7, "species": "ムラサキカタバミ", "datetime": "2026年5月11日 13:30", "note": "", "photoId": "007" }, "geometry": { "type": "Point", "coordinates": [ 139.7415985, 35.6891414, 0.0 ] } },
{ "type": "Feature", "properties": { "fid": 8, "species": "ムラサキカタバミ", "datetime": "2026年5月25日 13:13", "note": "", "photoId": "008" }, "geometry": { "type": "Point", "coordinates": [ 139.740066899999988, 35.6905449, 0.0 ] } },
{ "type": "Feature", "properties": { "fid": 9, "species": "ムラサキカタバミ", "datetime": "2026年5月11日 13:10", "note": "", "photoId": "009" }, "geometry": { "type": "Point", "coordinates": [ 139.7427217, 35.6904965, 0.0 ] } },
{ "type": "Feature", "properties": { "fid": 10, "species": "ムラサキカタバミ", "datetime": "2026年5月25日 13:22", "note": "", "photoId": "010" }, "geometry": { "type": "Point", "coordinates": [ 139.7410558, 35.690901, 0.0 ] } },
{ "type": "Feature", "properties": { "fid": 11, "species": "ムラサキカタバミ", "datetime": "2026年5月18日 13:35", "note": "", "photoId": "011" }, "geometry": { "type": "Point", "coordinates": [ 139.7453746, 35.6899107, 0.0 ] } },
{ "type": "Feature", "properties": { "fid": 12, "species": "ムラサキカタバミ", "datetime": "2026年5月18日 13:36", "note": "", "photoId": "012" }, "geometry": { "type": "Point", "coordinates": [ 139.7454965, 35.6899885, 0.0 ] } },
{ "type": "Feature", "properties": { "fid": 13, "species": "ムラサキカタバミ", "datetime": "2026年5月25日 13:10", "note": "", "photoId": "013" }, "geometry": { "type": "Point", "coordinates": [ 139.7430652, 35.6900591, 0.0 ] } },
{ "type": "Feature", "properties": { "fid": 14, "species": "ムラサキカタバミ", "datetime": "2026年5月11日 13:30", "note": "", "photoId": "014" }, "geometry": { "type": "Point", "coordinates": [ 139.74407690000001, 35.690139, 0.0 ] } },
{ "type": "Feature", "properties": { "fid": 15, "species": "ムラサキカタバミ", "datetime": "2026年5月11日 13:30", "note": "", "photoId": "015" }, "geometry": { "type": "Point", "coordinates": [ 139.7437802, 35.6907679, 0.0 ] } },
{ "type": "Feature", "properties": { "fid": 16, "species": "ムラサキカタバミ", "datetime": "2026年5月25日 13:35", "note": "", "photoId": "016" }, "geometry": { "type": "Point", "coordinates": [ 139.743865, 35.6908046, 0.0 ] } },
{ "type": "Feature", "properties": { "fid": 17, "species": "ムラサキカタバミ", "datetime": "2026年5月11日 13:30", "note": "", "photoId": "017" }, "geometry": { "type": "Point", "coordinates": [ 139.7445405, 35.6923247, 0.0 ] } },
{ "type": "Feature", "properties": { "fid": 18, "species": "ムラサキカタバミ", "datetime": "2026年5月25日 13:39", "note": "", "photoId": "018" }, "geometry": { "type": "Point", "coordinates": [ 139.7453418, 35.6893884, 0.0 ] } },
{ "type": "Feature", "properties": { "fid": 19, "species": "ムラサキカタバミ", "datetime": "2026年5月18日 13:24", "note": "", "photoId": "019" }, "geometry": { "type": "Point", "coordinates": [ 139.747473899999989, 35.6902016, 0.0 ] } },
{ "type": "Feature", "properties": { "fid": 20, "species": "ムラサキカタバミ", "datetime": "2026年5月18日 13:23", "note": "", "photoId": "020" }, "geometry": { "type": "Point", "coordinates": [ 139.747426, 35.6902731, 0.0 ] } },
{ "type": "Feature", "properties": { "fid": 21, "species": "ムラサキカタバミ", "datetime": "2026年5月18日 13:20", "note": "", "photoId": "021" }, "geometry": { "type": "Point", "coordinates": [ 139.7471544, 35.6908458, 0.0 ] } },
{ "type": "Feature", "properties": { "fid": 22, "species": "ムラサキカタバミ", "datetime": "2026年5月11日 13:34", "note": "", "photoId": "022" }, "geometry": { "type": "Point", "coordinates": [ 139.7466873, 35.6913226, 0.0 ] } },
{ "type": "Feature", "properties": { "fid": 23, "species": "ムラサキカタバミ", "datetime": "2026年5月11日 13:40", "note": "", "photoId": "023" }, "geometry": { "type": "Point", "coordinates": [ 139.7456925, 35.6897202, 0.0 ] } },
{ "type": "Feature", "properties": { "fid": 24, "species": "ムラサキカタバミ", "datetime": "2026年5月18日 13:30", "note": "", "photoId": "024" }, "geometry": { "type": "Point", "coordinates": [ 139.7473719, 35.6896024, 0.0 ] } },
{ "type": "Feature", "properties": { "fid": 25, "species": "ムラサキカタバミ", "datetime": "2026年5月11日 13:51", "note": "", "photoId": "025" }, "geometry": { "type": "Point", "coordinates": [ 139.7456376, 35.6894801, 0.0 ] } },
{ "type": "Feature", "properties": { "fid": 26, "species": "ムラサキカタバミ", "datetime": "2026年5月18日 13:20", "note": "", "photoId": "026" }, "geometry": { "type": "Point", "coordinates": [ 139.742218400000013, 35.6882807, 0.0 ] } }
]
}
