{
"type": "FeatureCollection",
"name": "nazuna",
"crs": { "type": "name", "properties": { "name": "urn:ogc:def:crs:OGC:1.3:CRS84" } },
"features": [
{ "type": "Feature", "properties": { "fid": 1, "species": "ナズナ", "datetime": "2026年5月25日 13:26", "note": "", "photoId": "001" }, "geometry": { "type": "Point", "coordinates": [ 139.7427561, 35.6892771, 0.0 ] } },
{ "type": "Feature", "properties": { "fid": 2, "species": "ナズナ", "datetime": "2026年5月11日 13:37", "note": "", "photoId": "002" }, "geometry": { "type": "Point", "coordinates": [ 139.7398049, 35.6902486, 0.0 ] } }
]
}
