{
  "type": "FeatureCollection",
  "name": "nogeshi",
  "crs": { "type": "name", "properties": { "name": "urn:ogc:def:crs:OGC:1.3:CRS84" } },
  "features": [
    {
      "type": "Feature",
      "properties": {
        "datetime": "2026年5月25日 13:18",
        "note": "",
        "photoId": "001"
      },
      "geometry": {
        "type": "Point",
        "coordinates": [ 139.7412536, 35.6902208]
      }
    },
    {
      "type": "Feature",
      "properties": {
        "datetime": "2026年5月25日 13:17",
        "note": "",
        "photoId": "002" },
        "geometry": {
          "type": "Point",
          "coordinates": [ 139.7411655, 35.6901162]
        }
    }
  ]
}
