{
"type": "FeatureCollection",
"name": "onitabirako",
"crs": { "type": "name", "properties": { "name": "urn:ogc:def:crs:OGC:1.3:CRS84" } },
"features": [
{ "type": "Feature", "properties": { "fid": 1, "species": "オニタビラコ", "datetime": "2026年5月18日 13:21", "note": "", "photoId": "001" }, "geometry": { "type": "Point", "coordinates": [ 139.7472409, 35.6907256, 0.0 ] } },
{ "type": "Feature", "properties": { "fid": 2, "species": "オニタビラコ", "datetime": "2026年5月18日 13:25", "note": "", "photoId": "002" }, "geometry": { "type": "Point", "coordinates": [ 139.743677, 35.6888452, 0.0 ] } },
{ "type": "Feature", "properties": { "fid": 3, "species": "オニタビラコ", "datetime": "2026年5月11日 13:27", "note": "", "photoId": "003" }, "geometry": { "type": "Point", "coordinates": [ 139.743937499999987, 35.690623, 0.0 ] } },
{ "type": "Feature", "properties": { "fid": 4, "species": "オニタビラコ", "datetime": "2026年5月18日 13:24", "note": "", "photoId": "004" }, "geometry": { "type": "Point", "coordinates": [ 139.7435769, 35.6886589, 0.0 ] } },
{ "type": "Feature", "properties": { "fid": 5, "species": "オニタビラコ", "datetime": "2026年5月25日 13:17", "note": "", "photoId": "005" }, "geometry": { "type": "Point", "coordinates": [ 139.744479899999988, 35.6888742, 0.0 ] } },
{ "type": "Feature", "properties": { "fid": 6, "species": "オニタビラコ", "datetime": "2026年5月25日 13:16", "note": "", "photoId": "006" }, "geometry": { "type": "Point", "coordinates": [ 139.742248100000012, 35.6908687, 0.0 ] } },
{ "type": "Feature", "properties": { "fid": 7, "species": "オニタビラコ", "datetime": "2026年5月25日 13:18", "note": "", "photoId": "007" }, "geometry": { "type": "Point", "coordinates": [ 139.7410333, 35.6901054, 0.0 ] } },
{ "type": "Feature", "properties": { "fid": 8, "species": "オニタビラコ", "datetime": "2026年5月11日 13:30", "note": "", "photoId": "008" }, "geometry": { "type": "Point", "coordinates": [ 139.741404, 35.689088, 0.0 ] } },
{ "type": "Feature", "properties": { "fid": 9, "species": "オニタビラコ", "datetime": "2026年5月11日 13:31", "note": "", "photoId": "009" }, "geometry": { "type": "Point", "coordinates": [ 139.7411722, 35.689028, 0.0 ] } },
{ "type": "Feature", "properties": { "fid": 10, "species": "オニタビラコ", "datetime": "2026年5月25日 13:20", "note": "", "photoId": "010" }, "geometry": { "type": "Point", "coordinates": [ 139.7421875, 35.6908433, 0.0 ] } },
{ "type": "Feature", "properties": { "fid": 11, "species": "オニタビラコ", "datetime": "2026年5月11日 13:47", "note": "", "photoId": "011" }, "geometry": { "type": "Point", "coordinates": [ 139.7436299, 35.6904495, 0.0 ] } },
{ "type": "Feature", "properties": { "fid": 12, "species": "オニタビラコ", "datetime": "2026年5月11日 13:37", "note": "", "photoId": "012" }, "geometry": { "type": "Point", "coordinates": [ 139.7460376, 35.6911893, 0.0 ] } },
{ "type": "Feature", "properties": { "fid": 13, "species": "オニタビラコ", "datetime": "2026年5月25日 13:39", "note": "", "photoId": "013" }, "geometry": { "type": "Point", "coordinates": [ 139.7453391, 35.6893011, 0.0 ] } },
{ "type": "Feature", "properties": { "fid": 14, "species": "オニタビラコ", "datetime": "2026年5月18日 13:23", "note": "", "photoId": "014" }, "geometry": { "type": "Point", "coordinates": [ 139.747096699999986, 35.6910414, 0.0 ] } },
{ "type": "Feature", "properties": { "fid": 15, "species": "オニタビラコ", "datetime": "2026年5月25日 13:55", "note": "", "photoId": "015" }, "geometry": { "type": "Point", "coordinates": [ 139.7439264, 35.6908, 0.0 ] } },
{ "type": "Feature", "properties": { "fid": 16, "species": "オニタビラコ", "datetime": "2026年5月25日 13:21", "note": "", "photoId": "016" }, "geometry": { "type": "Point", "coordinates": [ 139.7448474, 35.6890031, 0.0 ] } },
{ "type": "Feature", "properties": { "fid": 17, "species": "オニタビラコ", "datetime": "2026年5月25日 13:18", "note": "", "photoId": "017" }, "geometry": { "type": "Point", "coordinates": [ 139.7443798, 35.6888917, 0.0 ] } },
{ "type": "Feature", "properties": { "fid": 18, "species": "オニタビラコ", "datetime": "2026年5月18日 13:20", "note": "", "photoId": "018" }, "geometry": { "type": "Point", "coordinates": [ 139.7471629, 35.6909001, 0.0 ] } },
{ "type": "Feature", "properties": { "fid": 19, "species": "オニタビラコ", "datetime": "2026年5月11日 13:28", "note": "", "photoId": "019" }, "geometry": { "type": "Point", "coordinates": [ 139.74659, 35.6913369, 0.0 ] } },
{ "type": "Feature", "properties": { "fid": 20, "species": "オニタビラコ", "datetime": "2026年5月11日 13:32", "note": "", "photoId": "020" }, "geometry": { "type": "Point", "coordinates": [ 139.746364, 35.6913401, 0.0 ] } },
{ "type": "Feature", "properties": { "fid": 21, "species": "オニタビラコ", "datetime": "2026年5月25日 13:29", "note": "", "photoId": "021" }, "geometry": { "type": "Point", "coordinates": [ 139.7429809, 35.6904763, 0.0 ] } },
{ "type": "Feature", "properties": { "fid": 22, "species": "オニタビラコ", "datetime": "2026年5月25日 13:16", "note": "", "photoId": "022" }, "geometry": { "type": "Point", "coordinates": [ 139.742317349144571, 35.690872604278574, 0.0 ] } }
]
}
