{
"type": "FeatureCollection",
"name": "orizururan",
"crs": { "type": "name", "properties": { "name": "urn:ogc:def:crs:OGC:1.3:CRS84" } },
"features": [
{ "type": "Feature", "properties": { "fid": 1, "species": "オリヅルラン", "datetime": "2026年5月24日 13:18", "note": "", "photoId": "001" }, "geometry": { "type": "Point", "coordinates": [ 139.742232800000011, 35.6908521, 0.0 ] } },
{ "type": "Feature", "properties": { "fid": 2, "species": "オリヅルラン", "datetime": "2026年5月25日 13:18", "note": "", "photoId": "002" }, "geometry": { "type": "Point", "coordinates": [ 139.7415315, 35.6907376, 0.0 ] } }
]
}
