{
"type": "FeatureCollection",
"name": "tokiwahaze",
"crs": { "type": "name", "properties": { "name": "urn:ogc:def:crs:OGC:1.3:CRS84" } },
"features": [
{ "type": "Feature", "properties": { "datetime": "2026年5月11日 13:27", "note": "", "photoId": "001" }, "geometry": { "type": "Point", "coordinates": [ 139.742438600000014, 35.6894833 ] } },
{ "type": "Feature", "properties": { "datetime": "2026年5月11日 13:45", "note": "", "photoId": "002" }, "geometry": { "type": "Point", "coordinates": [ 139.745239737211364, 35.689208593101903 ] } }
]
}
